{
  "links" : {
    "next" : "https://api.nasa.gov/neo/rest/v1/feed?start_date=2000-11-23&end_date=2000-11-23&detailed=true&api_key=t0TVs3DtDT2H8Oy2Zy8m2eVrNsAVKAexjcZXUckd",
    "prev" : "https://api.nasa.gov/neo/rest/v1/feed?start_date=2000-11-21&end_date=2000-11-21&detailed=true&api_key=t0TVs3DtDT2H8Oy2Zy8m2eVrNsAVKAexjcZXUckd",
    "self" : "https://api.nasa.gov/neo/rest/v1/feed?start_date=2000-11-22&end_date=2000-11-22&detailed=true&api_key=t0TVs3DtDT2H8Oy2Zy8m2eVrNsAVKAexjcZXUckd"
  },
  "element_count" : 4,
  "near_earth_objects" : {
    "2000-11-22" : [ {
      "links" : {
        "self" : "https://api.nasa.gov/neo/rest/v1/neo/2162882?api_key=t0TVs3DtDT2H8Oy2Zy8m2eVrNsAVKAexjcZXUckd"
      },
      "neo_reference_id" : "2162882",
      "name" : "162882 (2001 FD58)",
      "nasa_jpl_url" : "http://ssd.jpl.nasa.gov/sbdb.cgi?sstr=2162882",
      "absolute_magnitude_h" : 18.8,
      "estimated_diameter" : {
        "kilometers" : {
          "estimated_diameter_min" : 0.4619074603,
          "estimated_diameter_max" : 1.0328564805
        },
        "meters" : {
          "estimated_diameter_min" : 461.9074602816,
          "estimated_diameter_max" : 1032.8564805039
        },
        "miles" : {
          "estimated_diameter_min" : 0.2870159005,
          "estimated_diameter_max" : 0.6417870641
        },
        "feet" : {
          "estimated_diameter_min" : 1515.4444719902,
          "estimated_diameter_max" : 3388.6368554964
        }
      },
      "is_potentially_hazardous_asteroid" : true,
      "close_approach_data" : [ {
        "close_approach_date" : "2000-11-22",
        "epoch_date_close_approach" : 974880000000,
        "relative_velocity" : {
          "kilometers_per_second" : "21.3693986202",
          "kilometers_per_hour" : "76929.8350327538",
          "miles_per_hour" : "47801.2077735464"
        },
        "miss_distance" : {
          "astronomical" : "0.4971270365",
          "lunar" : "193.3824157715",
          "kilometers" : "74369144",
          "miles" : "46210844"
        },
        "orbiting_body" : "Earth"
      } ],
      "orbital_data" : {
        "orbit_id" : "81",
        "orbit_determination_date" : "2017-04-17 06:19:23",
        "orbit_uncertainty" : "0",
        "minimum_orbit_intersection" : ".0328837",
        "jupiter_tisserand_invariant" : "5.509",
        "epoch_osculation" : "2458000.5",
        "eccentricity" : ".5753742801940852",
        "semi_major_axis" : "1.092086314122245",
        "inclination" : "6.497317857906793",
        "ascending_node_longitude" : "341.215892884691",
        "orbital_period" : "416.8539045844141",
        "perihelion_distance" : ".4637279372243467",
        "perihelion_argument" : "45.94508763931062",
        "aphelion_distance" : "1.720444691020143",
        "perihelion_time" : "2458112.002340639777",
        "mean_anomaly" : "263.7052497556946",
        "mean_motion" : ".8636119178466253",
        "equinox" : "J2000"
      }
    }, {
      "links" : {
        "self" : "https://api.nasa.gov/neo/rest/v1/neo/3071917?api_key=t0TVs3DtDT2H8Oy2Zy8m2eVrNsAVKAexjcZXUckd"
      },
      "neo_reference_id" : "3071917",
      "name" : "(2000 WY28)",
      "nasa_jpl_url" : "http://ssd.jpl.nasa.gov/sbdb.cgi?sstr=3071917",
      "absolute_magnitude_h" : 20.0,
      "estimated_diameter" : {
        "kilometers" : {
          "estimated_diameter_min" : 0.2658,
          "estimated_diameter_max" : 0.5943468684
        },
        "meters" : {
          "estimated_diameter_min" : 265.8,
          "estimated_diameter_max" : 594.3468684194
        },
        "miles" : {
          "estimated_diameter_min" : 0.1651604118,
          "estimated_diameter_max" : 0.369309908
        },
        "feet" : {
          "estimated_diameter_min" : 872.047272,
          "estimated_diameter_max" : 1949.9569797852
        }
      },
      "is_potentially_hazardous_asteroid" : false,
      "close_approach_data" : [ {
        "close_approach_date" : "2000-11-22",
        "epoch_date_close_approach" : 974880000000,
        "relative_velocity" : {
          "kilometers_per_second" : "10.8960917939",
          "kilometers_per_hour" : "39225.9304581862",
          "miles_per_hour" : "24373.4677338657"
        },
        "miss_distance" : {
          "astronomical" : "0.2235454544",
          "lunar" : "86.9591751099",
          "kilometers" : "33441924",
          "miles" : "20779848"
        },
        "orbiting_body" : "Earth"
      } ],
      "orbital_data" : {
        "orbit_id" : "18",
        "orbit_determination_date" : "2017-04-06 09:16:41",
        "orbit_uncertainty" : "1",
        "minimum_orbit_intersection" : ".177546",
        "jupiter_tisserand_invariant" : "4.188",
        "epoch_osculation" : "2458000.5",
        "eccentricity" : ".2897763540051137",
        "semi_major_axis" : "1.638530797696724",
        "inclination" : "19.45106739246019",
        "ascending_node_longitude" : "63.32331508771512",
        "orbital_period" : "766.0909642106893",
        "perihelion_distance" : "1.163723317215077",
        "perihelion_argument" : "357.313669730945",
        "aphelion_distance" : "2.113338278178372",
        "perihelion_time" : "2458007.501675154728",
        "mean_anomaly" : "356.7097862088751",
        "mean_motion" : ".469918086517195",
        "equinox" : "J2000"
      }
    }, {
      "links" : {
        "self" : "https://api.nasa.gov/neo/rest/v1/neo/3179366?api_key=t0TVs3DtDT2H8Oy2Zy8m2eVrNsAVKAexjcZXUckd"
      },
      "neo_reference_id" : "3179366",
      "name" : "(2004 HM)",
      "nasa_jpl_url" : "http://ssd.jpl.nasa.gov/sbdb.cgi?sstr=3179366",
      "absolute_magnitude_h" : 23.2,
      "estimated_diameter" : {
        "kilometers" : {
          "estimated_diameter_min" : 0.0608912622,
          "estimated_diameter_max" : 0.1361570015
        },
        "meters" : {
          "estimated_diameter_min" : 60.8912622106,
          "estimated_diameter_max" : 136.1570015386
        },
        "miles" : {
          "estimated_diameter_min" : 0.0378360645,
          "estimated_diameter_max" : 0.0846040122
        },
        "feet" : {
          "estimated_diameter_min" : 199.7744887109,
          "estimated_diameter_max" : 446.7093369279
        }
      },
      "is_potentially_hazardous_asteroid" : false,
      "close_approach_data" : [ {
        "close_approach_date" : "2000-11-22",
        "epoch_date_close_approach" : 974880000000,
        "relative_velocity" : {
          "kilometers_per_second" : "7.4521819228",
          "kilometers_per_hour" : "26827.8549221274",
          "miles_per_hour" : "16669.7857431408"
        },
        "miss_distance" : {
          "astronomical" : "0.2108693818",
          "lunar" : "82.0281906128",
          "kilometers" : "31545612",
          "miles" : "19601534"
        },
        "orbiting_body" : "Earth"
      } ],
      "orbital_data" : {
        "orbit_id" : "19",
        "orbit_determination_date" : "2017-04-06 09:12:54",
        "orbit_uncertainty" : "6",
        "minimum_orbit_intersection" : ".00401018",
        "jupiter_tisserand_invariant" : "4.812",
        "epoch_osculation" : "2458000.5",
        "eccentricity" : ".4096387339190984",
        "semi_major_axis" : "1.331695602576287",
        "inclination" : "11.58066383637646",
        "ascending_node_longitude" : "205.359896892505",
        "orbital_period" : "561.3140013562911",
        "perihelion_distance" : ".786181501971306",
        "perihelion_argument" : "283.7223441809098",
        "aphelion_distance" : "1.877209703181268",
        "perihelion_time" : "2458107.501921733634",
        "mean_anomaly" : "291.3740763083913",
        "mean_motion" : ".6413522540505664",
        "equinox" : "J2000"
      }
    }, {
      "links" : {
        "self" : "https://api.nasa.gov/neo/rest/v1/neo/3667132?api_key=t0TVs3DtDT2H8Oy2Zy8m2eVrNsAVKAexjcZXUckd"
      },
      "neo_reference_id" : "3667132",
      "name" : "(2014 GY44)",
      "nasa_jpl_url" : "http://ssd.jpl.nasa.gov/sbdb.cgi?sstr=3667132",
      "absolute_magnitude_h" : 25.4,
      "estimated_diameter" : {
        "kilometers" : {
          "estimated_diameter_min" : 0.022108281,
          "estimated_diameter_max" : 0.0494356193
        },
        "meters" : {
          "estimated_diameter_min" : 22.1082810359,
          "estimated_diameter_max" : 49.435619262
        },
        "miles" : {
          "estimated_diameter_min" : 0.0137374447,
          "estimated_diameter_max" : 0.0307178602
        },
        "feet" : {
          "estimated_diameter_min" : 72.5337327539,
          "estimated_diameter_max" : 162.1903570994
        }
      },
      "is_potentially_hazardous_asteroid" : false,
      "close_approach_data" : [ {
        "close_approach_date" : "2000-11-22",
        "epoch_date_close_approach" : 974880000000,
        "relative_velocity" : {
          "kilometers_per_second" : "8.904899041",
          "kilometers_per_hour" : "32057.6365477181",
          "miles_per_hour" : "19919.3686648863"
        },
        "miss_distance" : {
          "astronomical" : "0.2535791753",
          "lunar" : "98.6422958374",
          "kilometers" : "37934904",
          "miles" : "23571656"
        },
        "orbiting_body" : "Earth"
      } ],
      "orbital_data" : {
        "orbit_id" : "10",
        "orbit_determination_date" : "2017-04-06 08:41:40",
        "orbit_uncertainty" : "5",
        "minimum_orbit_intersection" : ".000456335",
        "jupiter_tisserand_invariant" : "5.243",
        "epoch_osculation" : "2458000.5",
        "eccentricity" : ".3910920045924487",
        "semi_major_axis" : "1.188751181183419",
        "inclination" : "10.19175654625401",
        "ascending_node_longitude" : "188.712803373728",
        "orbital_period" : "473.4072112285766",
        "perihelion_distance" : ".7238400987727545",
        "perihelion_argument" : "271.599483526166",
        "aphelion_distance" : "1.653662263594083",
        "perihelion_time" : "2458107.040780759893",
        "mean_anomaly" : "278.9816289996421",
        "mean_motion" : ".7604446900285601",
        "equinox" : "J2000"
      }
    } ]
  }
}